{
  "type": "FeatureCollection",
  "features": [
    {
      "type": "Feature",
      "properties": {
        "id": "i002-aarhus-universitymd",
        "name": "",
        "entity_type": "institution",
        "city": "",
        "country": "",
        "short_description": "",
        "logo_path": "/img/institutions/i002-aarhus-university_mark.png",
        "md_filename": "i002-aarhus-university.md"
      },
      "geometry": null
    },
    {
      "type": "Feature",
      "properties": {
        "id": "i029-seoul-national-universitymd",
        "name": "",
        "entity_type": "institution",
        "city": "",
        "country": "",
        "short_description": "",
        "logo_path": "/img/institutions/i029-seoul-national-university_mark.png",
        "md_filename": "i029-seoul-national-university.md"
      },
      "geometry": null
    },
    {
      "type": "Feature",
      "properties": {
        "id": "i054-university-of-trentomd",
        "name": "",
        "entity_type": "institution",
        "city": "",
        "country": "",
        "short_description": "",
        "logo_path": "/img/institutions/i054-university-of-trento_mark.png",
        "md_filename": "i054-university-of-trento.md"
      },
      "geometry": null
    },
    {
      "type": "Feature",
      "properties": {
        "id": "i048-university-of-oregonmd",
        "name": "",
        "entity_type": "institution",
        "city": "",
        "country": "",
        "short_description": "",
        "logo_path": "/img/institutions/i048-university-of-oregon_mark.png",
        "md_filename": "i048-university-of-oregon.md"
      },
      "geometry": null
    },
    {
      "type": "Feature",
      "properties": {
        "id": "i049-university-of-oxfordmd",
        "name": "",
        "entity_type": "institution",
        "city": "",
        "country": "",
        "short_description": "",
        "logo_path": "/img/institutions/i049-university-of-oxford_mark.png",
        "md_filename": "i049-university-of-oxford.md"
      },
      "geometry": null
    },
    {
      "type": "Feature",
      "properties": {
        "id": "i037-university-of-amsterdammd",
        "name": "",
        "entity_type": "institution",
        "city": "",
        "country": "",
        "short_description": "",
        "logo_path": "/img/institutions/i037-university-of-amsterdam_mark.png",
        "md_filename": "i037-university-of-amsterdam.md"
      },
      "geometry": null
    },
    {
      "type": "Feature",
      "properties": {
        "id": "i045-university-of-groningenmd",
        "name": "",
        "entity_type": "institution",
        "city": "",
        "country": "",
        "short_description": "",
        "logo_path": "/img/institutions/i045-university-of-groningen_mark.png",
        "md_filename": "i045-university-of-groningen.md"
      },
      "geometry": null
    },
    {
      "type": "Feature",
      "properties": {
        "id": "i050-university-of-siegenmd",
        "name": "",
        "entity_type": "institution",
        "city": "",
        "country": "",
        "short_description": "",
        "logo_path": "/img/institutions/i050-university-of-siegen_mark.png",
        "md_filename": "i050-university-of-siegen.md"
      },
      "geometry": null
    },
    {
      "type": "Feature",
      "properties": {
        "id": "i009-imperial-college-londonmd",
        "name": "",
        "entity_type": "institution",
        "city": "",
        "country": "",
        "short_description": "",
        "logo_path": "/img/institutions/i009-imperial-college-london_mark.png",
        "md_filename": "i009-imperial-college-london.md"
      },
      "geometry": null
    },
    {
      "type": "Feature",
      "properties": {
        "id": "i011-institute-for-basic-science-ibs-south-koreamd",
        "name": "",
        "entity_type": "institution",
        "city": "",
        "country": "",
        "short_description": "",
        "logo_path": "/img/institutions/i011-institute-for-basic-science-ibs-south-korea_mark.png",
        "md_filename": "i011-institute-for-basic-science-ibs-south-korea.md"
      },
      "geometry": null
    },
    {
      "type": "Feature",
      "properties": {
        "id": "i032-stockholm-universitymd",
        "name": "",
        "entity_type": "institution",
        "city": "",
        "country": "",
        "short_description": "",
        "logo_path": "/img/institutions/i032-stockholm-university_mark.png",
        "md_filename": "i032-stockholm-university.md"
      },
      "geometry": null
    },
    {
      "type": "Feature",
      "properties": {
        "id": "i023-postechmd",
        "name": "",
        "entity_type": "institution",
        "city": "",
        "country": "",
        "short_description": "",
        "logo_path": "/img/institutions/i023-postech_mark.png",
        "md_filename": "i023-postech.md"
      },
      "geometry": null
    },
    {
      "type": "Feature",
      "properties": {
        "id": "i044-university-of-granadamd",
        "name": "",
        "entity_type": "institution",
        "city": "",
        "country": "",
        "short_description": "",
        "logo_path": "/img/institutions/i044-university-of-granada_mark.png",
        "md_filename": "i044-university-of-granada.md"
      },
      "geometry": null
    },
    {
      "type": "Feature",
      "properties": {
        "id": "i051-university-of-sussexmd",
        "name": "",
        "entity_type": "institution",
        "city": "",
        "country": "",
        "short_description": "",
        "logo_path": "/img/institutions/i051-university-of-sussex_mark.png",
        "md_filename": "i051-university-of-sussex.md"
      },
      "geometry": null
    },
    {
      "type": "Feature",
      "properties": {
        "id": "i040-university-of-buenos-airesmd",
        "name": "",
        "entity_type": "institution",
        "city": "",
        "country": "",
        "short_description": "",
        "logo_path": "/img/institutions/i040-university-of-buenos-aires_mark.png",
        "md_filename": "i040-university-of-buenos-aires.md"
      },
      "geometry": null
    },
    {
      "type": "Feature",
      "properties": {
        "id": "i034-technion-israel-institute-of-technologymd",
        "name": "",
        "entity_type": "institution",
        "city": "",
        "country": "",
        "short_description": "",
        "logo_path": "/img/institutions/i034-technion-israel-institute-of-technology_mark.png",
        "md_filename": "i034-technion-israel-institute-of-technology.md"
      },
      "geometry": null
    },
    {
      "type": "Feature",
      "properties": {
        "id": "i053-university-of-tokyomd",
        "name": "",
        "entity_type": "institution",
        "city": "",
        "country": "",
        "short_description": "",
        "logo_path": "/img/institutions/i053-university-of-tokyo_mark.png",
        "md_filename": "i053-university-of-tokyo.md"
      },
      "geometry": null
    },
    {
      "type": "Feature",
      "properties": {
        "id": "i013-ionq-incmd",
        "name": "",
        "entity_type": "institution",
        "city": "",
        "country": "",
        "short_description": "",
        "logo_path": "/img/institutions/i013-ionq-inc_mark.png",
        "md_filename": "i013-ionq-inc.md"
      },
      "geometry": null
    },
    {
      "type": "Feature",
      "properties": {
        "id": "i003-centre-for-quantum-technologies-national-university-of-singaporemd",
        "name": "",
        "entity_type": "institution",
        "city": "",
        "country": "",
        "short_description": "",
        "logo_path": "/img/institutions/i003-centre-for-quantum-technologies-national-university-of-singapore_mark.png",
        "md_filename": "i003-centre-for-quantum-technologies-national-university-of-singapore.md"
      },
      "geometry": null
    },
    {
      "type": "Feature",
      "properties": {
        "id": "i004-duke-universitymd",
        "name": "",
        "entity_type": "institution",
        "city": "",
        "country": "",
        "short_description": "",
        "logo_path": "/img/institutions/i004-duke-university_mark.png",
        "md_filename": "i004-duke-university.md"
      },
      "geometry": null
    },
    {
      "type": "Feature",
      "properties": {
        "id": "i024-palacky-university-olomoucmd",
        "name": "",
        "entity_type": "institution",
        "city": "",
        "country": "",
        "short_description": "",
        "logo_path": "/img/institutions/i024-palacky-university-olomouc_mark.png",
        "md_filename": "i024-palacky-university-olomouc.md"
      },
      "geometry": null
    },
    {
      "type": "Feature",
      "properties": {
        "id": "i052-university-of-sydneymd",
        "name": "",
        "entity_type": "institution",
        "city": "",
        "country": "",
        "short_description": "",
        "logo_path": "/img/institutions/i052-university-of-sydney_mark.png",
        "md_filename": "i052-university-of-sydney.md"
      },
      "geometry": null
    },
    {
      "type": "Feature",
      "properties": {
        "id": "i056-vu-amsterdammd",
        "name": "",
        "entity_type": "institution",
        "city": "",
        "country": "",
        "short_description": "",
        "logo_path": "/img/institutions/i056-vu-amsterdam_mark.png",
        "md_filename": "i056-vu-amsterdam.md"
      },
      "geometry": null
    },
    {
      "type": "Feature",
      "properties": {
        "id": "i020-national-physical-laboratory-nplmd",
        "name": "",
        "entity_type": "institution",
        "city": "",
        "country": "",
        "short_description": "",
        "logo_path": "/img/institutions/i020-national-physical-laboratory-npl_mark.png",
        "md_filename": "i020-national-physical-laboratory-npl.md"
      },
      "geometry": null
    },
    {
      "type": "Feature",
      "properties": {
        "id": "i057-open-quantum-designmd",
        "name": "",
        "entity_type": "institution",
        "city": "",
        "country": "",
        "short_description": "",
        "logo_path": "/img/institutions/i057-open-quantum-design_mark.png",
        "md_filename": "i057-open-quantum-design.md"
      },
      "geometry": null
    },
    {
      "type": "Feature",
      "properties": {
        "id": "i039-university-of-bonnmd",
        "name": "",
        "entity_type": "institution",
        "city": "",
        "country": "",
        "short_description": "",
        "logo_path": "/img/institutions/i039-university-of-bonn_mark.png",
        "md_filename": "i039-university-of-bonn.md"
      },
      "geometry": null
    },
    {
      "type": "Feature",
      "properties": {
        "id": "i026-physikalisch-technische-bundesanstalt-ptbmd",
        "name": "",
        "entity_type": "institution",
        "city": "",
        "country": "",
        "short_description": "",
        "logo_path": "/img/institutions/i026-physikalisch-technische-bundesanstalt-ptb_mark.png",
        "md_filename": "i026-physikalisch-technische-bundesanstalt-ptb.md"
      },
      "geometry": null
    },
    {
      "type": "Feature",
      "properties": {
        "id": "i035-tsinghua-universitymd",
        "name": "",
        "entity_type": "institution",
        "city": "",
        "country": "",
        "short_description": "",
        "logo_path": "/img/institutions/i035-tsinghua-university_mark.png",
        "md_filename": "i035-tsinghua-university.md"
      },
      "geometry": null
    },
    {
      "type": "Feature",
      "properties": {
        "id": "i033-sungkyunkwan-university-skkumd",
        "name": "",
        "entity_type": "institution",
        "city": "",
        "country": "",
        "short_description": "",
        "logo_path": "/img/institutions/i033-sungkyunkwan-university-skku_mark.png",
        "md_filename": "i033-sungkyunkwan-university-skku.md"
      },
      "geometry": null
    },
    {
      "type": "Feature",
      "properties": {
        "id": "i058-quantum-hub",
        "name": "Quantum Hub",
        "entity_type": "institution",
        "city": "Tel Aviv",
        "country": "Israel",
        "short_description": "Israeli quantum technology ecosystem initiative supporting collaboration between startups, academia, industry, and government in quantum computing and related technologies.",
        "logo_path": "",
        "md_filename": "i058-quantum-hub.md"
      },
      "geometry": {
        "type": "Point",
        "coordinates": [
          34.7818,
          32.0853
        ]
      }
    },
    {
      "type": "Feature",
      "properties": {
        "id": "i007-georgia-institute-of-technologymd",
        "name": "",
        "entity_type": "institution",
        "city": "",
        "country": "",
        "short_description": "",
        "logo_path": "/img/institutions/i007-georgia-institute-of-technology_mark.png",
        "md_filename": "i007-georgia-institute-of-technology.md"
      },
      "geometry": null
    },
    {
      "type": "Feature",
      "properties": {
        "id": "i028-sandia-national-laboratoriesmd",
        "name": "",
        "entity_type": "institution",
        "city": "",
        "country": "",
        "short_description": "",
        "logo_path": "/img/institutions/i028-sandia-national-laboratories_mark.png",
        "md_filename": "i028-sandia-national-laboratories.md"
      },
      "geometry": null
    },
    {
      "type": "Feature",
      "properties": {
        "id": "i014-johannes-gutenberg-university-mainzmd",
        "name": "",
        "entity_type": "institution",
        "city": "",
        "country": "",
        "short_description": "",
        "logo_path": "/img/institutions/i014-johannes-gutenberg-university-mainz_mark.png",
        "md_filename": "i014-johannes-gutenberg-university-mainz.md"
      },
      "geometry": null
    },
    {
      "type": "Feature",
      "properties": {
        "id": "i018-national-institute-of-information-and-communications-technology-nictmd",
        "name": "",
        "entity_type": "institution",
        "city": "",
        "country": "",
        "short_description": "",
        "logo_path": "/img/institutions/i018-national-institute-of-information-and-communications-technology-nict_mark.png",
        "md_filename": "i018-national-institute-of-information-and-communications-technology-nict.md"
      },
      "geometry": null
    },
    {
      "type": "Feature",
      "properties": {
        "id": "i012-institute-for-quantum-computing-university-of-waterloomd",
        "name": "",
        "entity_type": "institution",
        "city": "",
        "country": "",
        "short_description": "",
        "logo_path": "/img/institutions/i012-institute-for-quantum-computing-university-of-waterloo_mark.png",
        "md_filename": "i012-institute-for-quantum-computing-university-of-waterloo.md"
      },
      "geometry": null
    },
    {
      "type": "Feature",
      "properties": {
        "id": "i043-university-of-california-los-angelesmd",
        "name": "",
        "entity_type": "institution",
        "city": "",
        "country": "",
        "short_description": "",
        "logo_path": "/img/institutions/i043-university-of-california-los-angeles_mark.png",
        "md_filename": "i043-university-of-california-los-angeles.md"
      },
      "geometry": null
    },
    {
      "type": "Feature",
      "properties": {
        "id": "i038-university-of-baselmd",
        "name": "",
        "entity_type": "institution",
        "city": "",
        "country": "",
        "short_description": "",
        "logo_path": "/img/institutions/i038-university-of-basel_mark.png",
        "md_filename": "i038-university-of-basel.md"
      },
      "geometry": null
    },
    {
      "type": "Feature",
      "properties": {
        "id": "i006-ewha-womans-universitymd",
        "name": "",
        "entity_type": "institution",
        "city": "",
        "country": "",
        "short_description": "",
        "logo_path": "/img/institutions/i006-ewha-womans-university_mark.png",
        "md_filename": "i006-ewha-womans-university.md"
      },
      "geometry": null
    },
    {
      "type": "Feature",
      "properties": {
        "id": "i001-weizmann-institute-of-science",
        "name": "Weizmann Institute of Science",
        "entity_type": "institution",
        "city": "Rehovot",
        "country": "Israel",
        "short_description": "The Weizmann Institute of Science is a leading multidisciplinary basic research institution located in Rehovot, Israel.",
        "logo_path": "/img/institutions/weizmann_logo_mark.png",
        "md_filename": "i001-weizmann-institute-of-science.md"
      },
      "geometry": {
        "type": "Point",
        "coordinates": [
          34.80493723330932,
          31.916340784475373
        ]
      }
    },
    {
      "type": "Feature",
      "properties": {
        "id": "i015-kyoto-universitymd",
        "name": "",
        "entity_type": "institution",
        "city": "",
        "country": "",
        "short_description": "",
        "logo_path": "/img/institutions/i015-kyoto-university_mark.png",
        "md_filename": "i015-kyoto-university.md"
      },
      "geometry": null
    },
    {
      "type": "Feature",
      "properties": {
        "id": "i059-cqiqcmd",
        "name": "",
        "entity_type": "institution",
        "city": "",
        "country": "",
        "short_description": "",
        "logo_path": "/img/institutions/i059-cqiqc_mark.png",
        "md_filename": "i059-cqiqc.md"
      },
      "geometry": null
    },
    {
      "type": "Feature",
      "properties": {
        "id": "i019-national-institute-of-standards-and-technology-nist-bouldermd",
        "name": "",
        "entity_type": "institution",
        "city": "",
        "country": "",
        "short_description": "",
        "logo_path": "/img/institutions/i019-national-institute-of-standards-and-technology-nist-boulder_mark.png",
        "md_filename": "i019-national-institute-of-standards-and-technology-nist-boulder.md"
      },
      "geometry": null
    },
    {
      "type": "Feature",
      "properties": {
        "id": "i055-university-of-washingtonmd",
        "name": "",
        "entity_type": "institution",
        "city": "",
        "country": "",
        "short_description": "",
        "logo_path": "/img/institutions/i055-university-of-washington_mark.png",
        "md_filename": "i055-university-of-washington.md"
      },
      "geometry": null
    },
    {
      "type": "Feature",
      "properties": {
        "id": "i031-stellenbosch-universitymd",
        "name": "",
        "entity_type": "institution",
        "city": "",
        "country": "",
        "short_description": "",
        "logo_path": "/img/institutions/i031-stellenbosch-university_mark.png",
        "md_filename": "i031-stellenbosch-university.md"
      },
      "geometry": null
    },
    {
      "type": "Feature",
      "properties": {
        "id": "i010-indian-institute-of-science-education-and-research-iiser-punemd",
        "name": "",
        "entity_type": "institution",
        "city": "",
        "country": "",
        "short_description": "",
        "logo_path": "/img/institutions/i010-indian-institute-of-science-education-and-research-iiser-pune_mark.png",
        "md_filename": "i010-indian-institute-of-science-education-and-research-iiser-pune.md"
      },
      "geometry": null
    },
    {
      "type": "Feature",
      "properties": {
        "id": "i030-simon-fraser-universitymd",
        "name": "",
        "entity_type": "institution",
        "city": "",
        "country": "",
        "short_description": "",
        "logo_path": "/img/institutions/i030-simon-fraser-university_mark.png",
        "md_filename": "i030-simon-fraser-university.md"
      },
      "geometry": null
    },
    {
      "type": "Feature",
      "properties": {
        "id": "i005-eth-zurichmd",
        "name": "",
        "entity_type": "institution",
        "city": "",
        "country": "",
        "short_description": "",
        "logo_path": "/img/institutions/i005-eth-zurich_mark.png",
        "md_filename": "i005-eth-zurich.md"
      },
      "geometry": null
    },
    {
      "type": "Feature",
      "properties": {
        "id": "i047-university-of-kasselmd",
        "name": "",
        "entity_type": "institution",
        "city": "",
        "country": "",
        "short_description": "",
        "logo_path": "/img/institutions/i047-university-of-kassel_mark.png",
        "md_filename": "i047-university-of-kassel.md"
      },
      "geometry": null
    },
    {
      "type": "Feature",
      "properties": {
        "id": "i017-massachusetts-institute-of-technologymd",
        "name": "",
        "entity_type": "institution",
        "city": "",
        "country": "",
        "short_description": "",
        "logo_path": "/img/institutions/i017-massachusetts-institute-of-technology_mark.png",
        "md_filename": "i017-massachusetts-institute-of-technology.md"
      },
      "geometry": null
    },
    {
      "type": "Feature",
      "properties": {
        "id": "i046-university-of-innsbruckmd",
        "name": "",
        "entity_type": "institution",
        "city": "",
        "country": "",
        "short_description": "",
        "logo_path": "/img/institutions/i046-university-of-innsbruck_mark.png",
        "md_filename": "i046-university-of-innsbruck.md"
      },
      "geometry": null
    },
    {
      "type": "Feature",
      "properties": {
        "id": "i021-okinawa-institute-of-science-and-technology-oistmd",
        "name": "",
        "entity_type": "institution",
        "city": "",
        "country": "",
        "short_description": "",
        "logo_path": "/img/institutions/i021-okinawa-institute-of-science-and-technology-oist_mark.png",
        "md_filename": "i021-okinawa-institute-of-science-and-technology-oist.md"
      },
      "geometry": null
    },
    {
      "type": "Feature",
      "properties": {
        "id": "i008-griffith-universitymd",
        "name": "",
        "entity_type": "institution",
        "city": "",
        "country": "",
        "short_description": "",
        "logo_path": "/img/institutions/i008-griffith-university_mark.png",
        "md_filename": "i008-griffith-university.md"
      },
      "geometry": null
    },
    {
      "type": "Feature",
      "properties": {
        "id": "i025-peking-universitymd",
        "name": "",
        "entity_type": "institution",
        "city": "",
        "country": "",
        "short_description": "",
        "logo_path": "/img/institutions/i025-peking-university_mark.png",
        "md_filename": "i025-peking-university.md"
      },
      "geometry": null
    },
    {
      "type": "Feature",
      "properties": {
        "id": "i022-osaka-universitymd",
        "name": "",
        "entity_type": "institution",
        "city": "",
        "country": "",
        "short_description": "",
        "logo_path": "/img/institutions/i022-osaka-university_mark.png",
        "md_filename": "i022-osaka-university.md"
      },
      "geometry": null
    },
    {
      "type": "Feature",
      "properties": {
        "id": "i041-university-of-calgarymd",
        "name": "",
        "entity_type": "institution",
        "city": "",
        "country": "",
        "short_description": "",
        "logo_path": "/img/institutions/i041-university-of-calgary_mark.png",
        "md_filename": "i041-university-of-calgary.md"
      },
      "geometry": null
    },
    {
      "type": "Feature",
      "properties": {
        "id": "i036-ulm-universitymd",
        "name": "",
        "entity_type": "institution",
        "city": "",
        "country": "",
        "short_description": "",
        "logo_path": "/img/institutions/i036-ulm-university_mark.png",
        "md_filename": "i036-ulm-university.md"
      },
      "geometry": null
    },
    {
      "type": "Feature",
      "properties": {
        "id": "i027-saarland-universitymd",
        "name": "",
        "entity_type": "institution",
        "city": "",
        "country": "",
        "short_description": "",
        "logo_path": "/img/institutions/i027-saarland-university_mark.png",
        "md_filename": "i027-saarland-university.md"
      },
      "geometry": null
    },
    {
      "type": "Feature",
      "properties": {
        "id": "i042-university-of-california-berkeleymd",
        "name": "",
        "entity_type": "institution",
        "city": "",
        "country": "",
        "short_description": "",
        "logo_path": "/img/institutions/i042-university-of-california-berkeley_mark.png",
        "md_filename": "i042-university-of-california-berkeley.md"
      },
      "geometry": null
    },
    {
      "type": "Feature",
      "properties": {
        "id": "i016-mit-lincoln-laboratorymd",
        "name": "",
        "entity_type": "institution",
        "city": "",
        "country": "",
        "short_description": "",
        "logo_path": "/img/institutions/i016-mit-lincoln-laboratory_mark.png",
        "md_filename": "i016-mit-lincoln-laboratory.md"
      },
      "geometry": null
    }
  ]
}